LEMUR-2-ANDIS           
1 42838U 17042P   26068.55941107  .00023598  00000+0  79875-3 0  9998
2 42838  97.3659 249.7950 0009101   4.3248 355.8070 15.30557934473198
STARLINK-35989          
1 66819U 25278AE  26068.20174951  .00031775  00000+0  11589-2 0  9993
2 66819  43.0011 117.1875 0001584 275.3817  84.6854 15.27588589 15135
